H1 CPF  1  MCC 2022  1 10 16  5101 larets
H2  0304206 5557    27944 2022 01 09 23 45 00 2022 01 14 23 57 00   180 1 1  0 0 0
H9
10 0 59590 73980.000000 0      1284335.756      2503778.677      6458891.396
10 0 59590 74160.000000 0      1177518.328      1197257.402      6841979.763
10 0 59590 74340.000000 0       992933.671      -149111.860      6973710.323
10 0 59590 74520.000000 0       736955.943     -1484266.595      6849363.217
10 0 59590 74700.000000 0       419883.108     -2757810.066      6473593.196
10 0 59590 74880.000000 0        55517.644     -3921932.305      5860251.604
10 0 59590 75060.000000 0      -339425.788     -4933222.584      5031877.928
10 0 59590 75240.000000 0      -746060.953     -5754312.565      4018891.647
10 0 59590 75420.000000 0     -1144197.786     -6355305.446      2858491.759
10 0 59590 75600.000000 0     -1513298.335     -6714911.690      1593284.215
10 0 59590 75780.000000 0     -1833473.292     -6821240.112       269695.150
10 0 59590 75960.000000 0     -2086469.901     -6672200.685     -1063775.333
10 0 59590 76140.000000 0     -2256593.446     -6275495.992     -2358375.990
10 0 59590 76320.000000 0     -2331520.167     -5648210.866     -3566920.959
10 0 59590 76500.000000 0     -2302961.126     -4816024.136     -4645523.007
10 0 59590 76680.000000 0     -2167144.002     -3812091.747     -5555166.097
10 0 59590 76860.000000 0     -1925096.502     -2675673.305     -6263063.390
10 0 59590 77040.000000 0     -1582723.872     -1450568.543     -6743769.432
10 0 59590 77220.000000 0     -1150679.620      -183428.982     -6980019.281
10 0 59590 77400.000000 0      -644040.381      1077987.656     -6963285.968
10 0 59590 77580.000000 0       -81793.269      2286566.201     -6694060.047
10 0 59590 77760.000000 0       513849.139      3397543.483     -6181851.530
10 0 59590 77940.000000 0      1118294.406      4370139.411     -5444909.712
10 0 59590 78120.000000 0      1705552.211      5169057.413     -4509650.405
10 0 59590 78300.000000 0      2249321.586      5765806.726     -3409795.047
10 0 59590 78480.000000 0      2724144.140      6139788.689     -2185224.830
10 0 59590 78660.000000 0      3106574.164      6279093.494      -880575.841
10 0 59590 78840.000000 0      3376307.384      6180955.953       456389.002
10 0 59590 79020.000000 0      3517203.680      5851829.896      1776565.305
10 0 59590 79200.000000 0      3518148.714      5307073.179      3031367.357
10 0 59590 79380.000000 0      3373704.883      4570254.333      4174583.070
10 0 59590 79560.000000 0      3084515.477      3672110.771      5164133.998
10 0 59590 79740.000000 0      2657431.640      2649218.198      5963660.918
10 0 59590 79920.000000 0      2105366.218      1542444.786      6543859.396
10 0 59590 80100.000000 0      1446890.415       395271.324      6883534.471
10 0 59590 80280.000000 0       705583.607      -747949.077      6970341.868
10 0 59590 80460.000000 0       -90831.695     -1843722.169      6801210.908
10 0 59590 80640.000000 0      -911542.944     -2851082.179      6382437.427
10 0 59590 80820.000000 0     -1723848.526     -3733134.986      5729442.259
10 0 59590 81000.000000 0     -2494460.176     -4458422.101      4866215.251
10 0 59590 81180.000000 0     -3190876.689     -5002070.308      3824458.638
10 0 59590 81360.000000 0     -3782770.218     -5346677.248      2642430.413
10 0 59590 81540.000000 0     -4243310.643     -5482887.132      1363527.917
10 0 59590 81720.000000 0     -4550371.209     -5409633.340        34668.613
10 0 59590 81900.000000 0     -4687556.589     -5134033.778     -1295470.876
10 0 59590 82080.000000 0     -4644997.886     -4670943.615     -2578283.537
10 0 59590 82260.000000 0     -4419870.420     -4042187.007     -3767043.124
10 0 59590 82440.000000 0     -4016613.589     -3275518.625     -4818611.136
10 0 59590 82620.000000 0     -3446853.008     -2403378.916     -5694974.789
10 0 59590 82800.000000 0     -2729037.042     -1461506.785     -6364565.345
10 0 59590 82980.000000 0     -1887811.593      -487475.753     -6803323.091
10 0 59590 83160.000000 0      -953160.549       480785.979     -6995486.210
10 0 59590 83340.000000 0        40648.644      1406434.390     -6934097.511
10 0 59590 83520.000000 0      1056283.950      2255069.087     -6621237.175
10 0 59590 83700.000000 0      2054707.466      2995980.967     -6067979.178
10 0 59590 83880.000000 0      2996640.868      3603255.266     -5294057.135
10 0 59590 84060.000000 0      3844089.167      4056691.650     -4327240.057
10 0 59590 84240.000000 0      4561877.232      4342513.811     -3202422.286
10 0 59590 84420.000000 0      5119139.481      4453832.451     -1960429.946
10 0 59590 84600.000000 0      5490687.869      4390830.278      -646571.352
10 0 59590 84780.000000 0      5658186.140      4160652.095       691021.962
10 0 59590 84960.000000 0      5611061.952      3776998.052      2003196.916
10 0 59590 85140.000000 0      5347104.470      3259430.924      3241647.156
10 0 59590 85320.000000 0      4872701.725      2632431.278      4360760.862
10 0 59590 85500.000000 0      4202703.336      1924250.506      5319354.322
10 0 59590 85680.000000 0      3359924.966      1165629.467      6082215.130
10 0 59590 85860.000000 0      2374315.144       388446.182      6621397.204
10 0 59590 86040.000000 0      1281838.109      -375638.378      6917215.898
10 0 59590 86220.000000 0       123123.347     -1096476.827      6958938.655
10 0 59591     0.000000 0     -1058075.562     -1746632.172      6745148.418
10 0 59591   180.000000 0     -2216550.407     -2302427.593      6283772.083
10 0 59591   360.000000 0     -3307374.757     -2744811.378      5591786.365
10 0 59591   540.000000 0     -4287663.683     -3060018.338      4694616.021
10 0 59591   720.000000 0     -5118292.192     -3240002.504      3625212.381
10 0 59591   900.000000 0     -5765488.919     -3282618.073      2422846.845
10 0 59591  1080.000000 0     -6202243.466     -3191546.849      1131661.588
10 0 59591  1260.000000 0     -6409457.876     -2975973.738      -200981.709
10 0 59591  1440.000000 0     -6376778.094     -2650021.620     -1526282.799
10 0 59591  1620.000000 0     -6103061.967     -2231977.638     -2795836.313
10 0 59591  1800.000000 0     -5596459.257     -1743354.252     -3963427.806
10 0 59591  1980.000000 0     -4874115.524     -1207840.026     -4986715.071
10 0 59591  2160.000000 0     -3961524.163      -650194.227     -5828732.565
10 0 59591  2340.000000 0     -2891564.632       -95138.711     -6459167.821
10 0 59591  2520.000000 0     -1703280.599       433701.302     -6855375.059
10 0 59591  2700.000000 0      -440452.547       914763.860     -7003114.082
10 0 59591  2880.000000 0       849983.135      1329396.052     -6897009.857
10 0 59591  3060.000000 0      2119624.923      1662554.845     -6540738.913
10 0 59591  3240.000000 0      3320374.589      1903346.540     -5946935.046
10 0 59591  3420.000000 0      4406227.824      2045385.913     -5136801.090
10 0 59591  3600.000000 0      5335032.860      2086963.582     -4139435.257
10 0 59591  3780.000000 0      6070162.131      2031014.658     -2990868.358
10 0 59591  3960.000000 0      6582022.095      1884883.040     -1732825.734
10 0 59591  4140.000000 0      6849330.511      1659887.611      -411239.476
10 0 59591  4320.000000 0      6860081.339      1370702.354       925443.138
10 0 59591  4500.000000 0      6612133.160      1034579.413      2228080.689
10 0 59591  4680.000000 0      6113388.588       670454.072      3448708.586
10 0 59591  4860.000000 0      5381539.737       297976.932      4542373.192
10 0 59591  5040.000000 0      4443395.422       -63469.904      5468835.884
10 0 59591  5220.000000 0      3333833.279      -395721.548      6194077.156
10 0 59591  5400.000000 0      2094429.299      -682695.474      6691539.561
10 0 59591  5580.000000 0       771841.366      -911132.170      6943075.409
10 0 59591  5760.000000 0      -583992.110     -1071184.802      6939579.502
10 0 59591  5940.000000 0     -1921765.376     -1156833.378      6681288.803
10 0 59591  6120.000000 0     -3190758.323     -1166108.688      6177754.399
10 0 59591  6300.000000 0     -4342770.058     -1101118.739      5447496.724
10 0 59591  6480.000000 0     -5333978.756      -967882.984      4517344.671
10 0 59591  6660.000000 0     -6126650.285      -775978.870      3421461.908
10 0 59591  6840.000000 0     -6690618.540      -538013.889      2200093.500
10 0 59591  7020.000000 0     -7004479.780      -268948.049       898077.248
10 0 59591  7200.000000 0     -7056438.715        14699.790      -436837.295
10 0 59591  7380.000000 0     -6844754.056       295720.843     -1755786.394
10 0 59591  7560.000000 0     -6377764.739       557114.957     -3010620.825
10 0 59591  7740.000000 0     -5673508.251       782970.854     -4155687.527
10 0 59591  7920.000000 0     -4758947.473       959285.117     -5149490.195
10 0 59591  8100.000000 0     -3668860.891      1074677.749     -5956154.623
10 0 59591  8280.000000 0     -2444463.674      1120972.132     -6546657.111
10 0 59591  8460.000000 0     -1131827.086      1093617.660     -6899790.523
10 0 59591  8640.000000 0       219841.960       991945.089     -7002854.052
10 0 59591  8820.000000 0      1559998.703       819245.225     -6852064.643
10 0 59591  9000.000000 0      2838596.013       582669.432     -6452697.425
10 0 59591  9180.000000 0      4007911.636       292952.837     -5818935.934
10 0 59591  9360.000000 0      5024308.183       -36033.643     -4973433.297
10 0 59591  9540.000000 0      5849877.802      -387890.300     -3946588.761
10 0 59591  9720.000000 0      6453913.075      -744436.131     -2775534.771
10 0 59591  9900.000000 0      6814134.100     -1086570.454     -1502852.100
10 0 59591 10080.000000 0      6917607.800     -1395210.191      -175042.122
10 0 59591 10260.000000 0      6761298.216     -1652255.912      1159190.486
10 0 59591 10440.000000 0      6352207.646     -1841537.242      2450774.837
99
